H1 CPF 01  gfz 2021 03 09 01  5681 terrasarx 
H2 0702601  6201 31698    2021 03 09 00 59 42 2021 03 14 00 00 42   120 1 1  0 0 0
H9
10 0 59286  38862.000000  0    2296516.381  -6359557.090   1313027.396
10 0 59286  38982.000000  0    2165230.236  -6526721.969    415736.761
10 0 59286  39102.000000  0    1994194.352  -6577167.182   -488874.713
10 0 59286  39222.000000  0    1788472.388  -6509416.893  -1384887.301
10 0 59286  39342.000000  0    1553743.271  -6324175.207  -2256553.274
10 0 59286  39462.000000  0    1296159.425  -6024317.029  -3088580.832
10 0 59286  39582.000000  0    1022197.822  -5614832.425  -3866407.306
10 0 59286  39702.000000  0     738508.273  -5102731.996  -4576454.033
10 0 59286  39822.000000  0     451760.820  -4496914.440  -5206360.301
10 0 59286  39942.000000  0     168496.963  -3808000.607  -5745191.708
10 0 59286  40062.000000  0    -105012.232  -3048137.574  -6183620.771
10 0 59286  40182.000000  0    -362898.135  -2230777.921  -6514077.100
10 0 59286  40302.000000  0    -599814.453  -1370438.826  -6730866.631
10 0 59286  40422.000000  0    -811042.941   -482445.632  -6830260.023
10 0 59286  40542.000000  0    -992583.248    417337.541  -6810549.843
10 0 59286  40662.000000  0   -1141226.209   1312784.390  -6672075.480
10 0 59286  40782.000000  0   -1254609.305   2187788.026  -6417217.845
10 0 59286  40902.000000  0   -1331253.451   3026543.312  -6050363.329
10 0 59286  41022.000000  0   -1370581.318   3813828.675  -5577837.674
10 0 59286  41142.000000  0   -1372916.150   4535281.212  -5007807.143
10 0 59286  41262.000000  0   -1339461.488   5177661.854  -4350149.290
10 0 59286  41382.000000  0   -1272261.854   5729105.163  -3616291.695
10 0 59286  41502.000000  0   -1174144.346   6179347.181  -2819021.267
10 0 59286  41622.000000  0   -1048642.500   6519927.434  -1972267.678
10 0 59286  41742.000000  0    -899903.726   6744360.439  -1090861.709
10 0 59286  41862.000000  0    -732582.571   6848270.040   -190274.187
10 0 59286  41982.000000  0    -551721.489   6829485.226    713660.169
10 0 59286  42102.000000  0    -362622.584   6688092.116   1605030.147
10 0 59286  42222.000000  0    -170713.863   6426437.735   2468138.725
10 0 59286  42342.000000  0      18586.235   6049087.488   3287787.141
10 0 59286  42462.000000  0     200002.988   5562740.290   4049547.963
10 0 59286  42582.000000  0     368534.984   4976104.655   4740024.868
10 0 59286  42702.000000  0     519576.184   4299728.829   5347092.978
10 0 59286  42822.000000  0     649027.048   3545800.049   5860105.695
10 0 59286  42942.000000  0     753393.009   2727918.072   6270078.562
10 0 59286  43062.000000  0     829866.620   1860842.256   6569841.051
10 0 59286  43182.000000  0     876393.273    960220.640   6754156.023
10 0 59286  43302.000000  0     891719.122     42305.122   6819805.061
10 0 59286  43422.000000  0     875420.369   -876340.571   6765641.208
10 0 59286  43542.000000  0     827913.194  -1779139.515   6592608.991
10 0 59286  43662.000000  0     750444.225  -2649800.441   6303729.309
10 0 59286  43782.000000  0     645061.679  -3472613.318   5904050.218
10 0 59286  43902.000000  0     514567.337  -4232734.482   5400561.327
10 0 59286  44022.000000  0     362451.865  -4916456.487   4802077.609
10 0 59286  44142.000000  0     192813.711  -5511461.626   4119092.734
10 0 59286  44262.000000  0      10261.769  -6007054.347   3363599.807
10 0 59286  44382.000000  0    -180195.739  -6394364.095   2548882.290
10 0 59286  44502.000000  0    -373273.154  -6666513.789   1689278.637
10 0 59286  44622.000000  0    -563537.342  -6818750.365    799927.176
10 0 59286  44742.000000  0    -745542.856  -6848536.014   -103508.000
10 0 59286  44862.000000  0    -913968.509  -6755592.015  -1005123.028
10 0 59286  44982.000000  0   -1063750.946  -6541896.197  -1889063.267
10 0 59286  45102.000000  0   -1190212.564  -6211635.991  -2739809.202
10 0 59286  45222.000000  0   -1289181.001  -5771118.455  -3542454.694
10 0 59286  45342.000000  0   -1357096.900  -5228638.561  -4282971.329
10 0 59286  45462.000000  0   -1391107.000  -4594309.938  -4948452.160
10 0 59286  45582.000000  0   -1389140.940  -3879864.699  -5527330.820
10 0 59286  45702.000000  0   -1349970.285  -3098427.245  -6009574.208
10 0 59286  45822.000000  0   -1273248.683  -2264266.553  -6386846.431
10 0 59286  45942.000000  0   -1159532.768  -1392531.989  -6652641.336
10 0 59286  46062.000000  0   -1010284.055   -498979.057  -6802383.557
10 0 59286  46182.000000  0    -827851.815    400311.507  -6833498.725
10 0 59286  46302.000000  0    -615436.123   1289216.409  -6745451.971
10 0 59286  46422.000000  0    -377033.017   2151851.201  -6539755.972
10 0 59286  46542.000000  0    -117362.594   2972846.899  -6219948.509
10 0 59286  46662.000000  0     158220.776   3737620.105  -5791539.760
10 0 59286  46782.000000  0     443834.450   4432631.049  -5261926.274
10 0 59286  46902.000000  0     733186.897   5045624.984  -4640274.672
10 0 59286  47022.000000  0    1019709.646   5565855.133  -3937374.457
10 0 59286  47142.000000  0    1296699.397   5984280.493  -3165459.856
10 0 59286  47262.000000  0    1557466.997   6293734.285  -2338003.992
10 0 59286  47382.000000  0    1795490.352   6489059.486  -1469487.167
10 0 59286  47502.000000  0    2004567.787   6567206.660   -575142.466
10 0 59286  47622.000000  0    2178967.515   6527289.958    329316.256
10 0 59286  47742.000000  0    2313568.989   6370599.840   1227977.206
10 0 59286  47862.000000  0    2403993.059   6100572.432   2105018.352
10 0 59286  47982.000000  0    2446717.243   5722715.942   2944994.077
10 0 59286  48102.000000  0    2439173.759   5244496.350   3733114.757
10 0 59286  48222.000000  0    2379827.081   4675184.747   4455513.845
10 0 59286  48342.000000  0    2268228.633   4025668.746   5099497.199
10 0 59286  48462.000000  0    2105046.837   3308232.565   5653764.460
10 0 59286  48582.000000  0    1892075.298   2536317.964   6108602.654
10 0 59286  48702.000000  0    1632217.339   1724266.791   6456052.455
10 0 59286  48822.000000  0    1329446.530    887049.122   6690041.837
10 0 59286  48942.000000  0     988745.002     39984.975   6806484.791
10 0 59286  49062.000000  0     616021.196   -801534.564   6803348.450
10 0 59286  49182.000000  0     218007.172  -1622327.057   6680687.880
10 0 59286  49302.000000  0    -197863.174  -2407692.564   6440644.948
10 0 59286  49422.000000  0    -623592.752  -3143677.609   6087412.727
10 0 59286  49542.000000  0   -1050772.980  -3817323.851   5627164.467
10 0 59286  49662.000000  0   -1470746.748  -4416897.566   5067952.060
10 0 59286  49782.000000  0   -1874782.839  -4932099.791   4419574.016
10 0 59286  49902.000000  0   -2254257.518  -5354252.615   3693409.811
10 0 59286  50022.000000  0   -2600838.493  -5676454.791   2902221.720
10 0 59286  50142.000000  0   -2906666.293  -5893701.496   2059929.532
10 0 59286  50262.000000  0   -3164529.370  -6002967.798   1181362.890
10 0 59286  50382.000000  0   -3368028.842  -6003253.296    281994.628
10 0 59286  50502.000000  0   -3511728.453  -5895586.119   -622339.268
10 0 59286  50622.000000  0   -3591285.983  -5682986.004  -1515727.520
10 0 59286  50742.000000  0   -3603562.512  -5370386.531  -2382472.503
10 0 59286  50862.000000  0   -3546706.861  -4964519.017  -3207373.377
10 0 59286  50982.000000  0   -3420212.718  -4473761.410  -3975996.999
10 0 59286  51102.000000  0   -3224947.619  -3907957.576  -4674930.301
10 0 59286  51222.000000  0   -2963154.404  -3278212.366  -5292010.524
10 0 59286  51342.000000  0   -2638425.623  -2596666.929  -5816529.673
10 0 59286  51462.000000  0   -2255651.902  -1876260.207  -6239410.722
10 0 59286  51582.000000  0   -1820944.832  -1130481.154  -6553354.338
10 0 59286  51702.000000  0   -1341536.638   -373116.482  -6752953.011
10 0 59286  51822.000000  0    -825660.018    382000.473  -6834773.071
10 0 59286  51942.000000  0    -282408.961   1121235.998  -6797407.249
10 0 59286  52062.000000  0     278417.896   1831395.797  -6641495.947
10 0 59286  52182.000000  0     846488.348   2499954.325  -6369718.931
10 0 59286  52302.000000  0    1411123.463   3115272.614  -5986755.609
10 0 59286  52422.000000  0    1961493.970   3666799.820  -5499212.072
10 0 59286  52542.000000  0    2486824.607   4145255.017  -4915517.724
10 0 59286  52662.000000  0    2976603.315   4542787.812  -4245791.308
10 0 59286  52782.000000  0    3420791.391   4853114.543  -3501675.757
10 0 59286  52902.000000  0    3810030.576   5071625.873  -2696144.149
10 0 59286  53022.000000  0    4135842.950   5195462.884  -1843277.900
10 0 59286  53142.000000  0    4390816.837   5223559.163   -958021.947
10 0 59286  53262.000000  0    4568775.660   5156648.794    -55920.104
10 0 59286  53382.000000  0    4664924.118   4997236.199    847164.300
10 0 59286  53502.000000  0    4675966.318   4749530.227   1735334.386
10 0 59286  53622.000000  0    4600196.095   4419346.046   2592947.047
10 0 59286  53742.000000  0    4437555.428   4013973.342   3404898.710
10 0 59286  53862.000000  0    4189656.726   3542014.905   4156898.619
10 0 59286  53982.000000  0    3859771.698   3013200.903   4835723.591
10 0 59286  54102.000000  0    3452788.324   2438184.887   5429452.856
10 0 59286  54222.000000  0    2975131.897   1828323.615   5927675.921
10 0 59286  54342.000000  0    2434658.577   1195449.457   6321669.467
10 0 59286  54462.000000  0    1840521.913    551637.738   6604543.818
10 0 59286  54582.000000  0    1203014.556    -91023.471   6771356.825
10 0 59286  54702.000000  0     533388.012   -720659.193   6819196.613
10 0 59286  54822.000000  0    -156346.835  -1325827.461   6747229.308
10 0 59286  54942.000000  0    -853635.279  -1895726.828   6556712.079
10 0 59286  55062.000000  0   -1545606.806  -2420389.210   6250971.242
10 0 59286  55182.000000  0   -2219310.248  -2890853.841   5835347.014
10 0 59286  55302.000000  0   -2861955.166  -3299322.258   5317108.171
99
